"25":"2 41549  55.4216 244.9739 0004075  17.7689 342.2593  1.70473590 48242","26":"2 41549  55.4216 244.9739 0004075  17.7689 342.2593  1.70473590 48220","27":"2 37846  57.1267   4.6766 0003871 351.1363   8.8373  1.70475980 76696","28":"2 40545  56.9281   4.6404 0004094 275.7889  84.1452  1.70475606 55440","29":"2 40545  56.9281   4.6404 0004094 275.7889  84.1452  1.70475606 17820","30":"2 38857  55.3527 124.7980 0005008 262.4631  97.5353  1.70473597 70583","31":"2 41174  55.3708 124.5021 0003462 310.0866  49.9401  1.70474858 50939","32":"2 41174  55.3708 124.5021 0003462 310.0866  49.9401  1.70474858 50366","33":"2 43564  57.3022   4.5916 0005491 297.6808  62.2440  1.70475626 34741","34":"2 49810  57.2966   4.4877 0001872 287.8425 244.3260  1.70475826 13783","35":"2 43567  57.3049   4.5931 0005225 299.4772  60.4513  1.70475742 34756","36":"2 43567  57.3049   4.5931 0005225 299.4772  60.4513  1.70475742 34745","37":"2 40544  56.9220   4.6163 0004722 285.9909  73.9380  1.70475795 54789","38":"2 49809  57.2958   4.4846 0002272 269.9532 260.1045  1.70475826 13757","39":"2 49809  57.2958   4.4846 0002272 269.9532 260.1045  1.70475826 13768"