<!DOCTYPE html PUBLIC "-//W3C//DTD XHTML 1.0 Strict//EN" "http://www.w3.org/TR/xhtml1/DTD/xhtml1-strict.dtd">
<html xmlns="http://www.w3.org/1999/xhtml">
<head>
<meta http-equiv="Content-Type" content="text/html; charset=iso-8859-1"/>
<title>404 - File Not Found.</title>
<style type="text/css">
<!--
body{margin:0;font-size:.7em;font-family:Verdana, Arial, Helvetica, sans-serif;background:#EEEEEE;}
fieldset{padding:0 15px 10px 15px;}
h1{font-size:2.4em;margin:0;color:#FFF;}
h2{font-size:1.7em;margin:0;color:#CC0000;}
h3{font-size:1.2em;margin:10px 0 0 0;color:#000000;}
#header{width:96%;margin:0 0 0 0;padding:6px 2% 6px 2%;font-family:"trebuchet MS", Verdana, sans-serif;color:#FFF;
background-color:#555555;}
#content{margin:0 0 0 2%;position:relative;}
.content-container{background:#FFF;width:96%;margin-top:8px;padding:10px;position:relative;}
-->
</style>
</head>
<body>
<div id="header"><h1>Server Error</h1></div>
<div id="content">
 <div class="content-container"><fieldset>
  <h2>404 - File Not Found.</h2>
  <h3>File not found for celestrak.org/NORAD/elements/education.txt.</h3>
  <h3>Please contact <a href="mailto:ts.kelso@celestrak.org">ts.kelso@celestrak.org</a> if you have other questions.</h3>
 </fieldset></div>
</div>
</body>
</html>
<!DOCTYPE html PUBLIC "-//W3C//DTD XHTML 1.0 Strict//EN" "http://www.w3.org/TR/xhtml1/DTD/xhtml1-strict.dtd">
<html xmlns="http://www.w3.org/1999/xhtml">
<head>
<meta http-equiv="Content-Type" content="text/html; charset=iso-8859-1"/>
<title>404 - File Not Found.</title>
<style type="text/css">
<!--
body{margin:0;font-size:.7em;font-family:Verdana, Arial, Helvetica, sans-serif;background:#EEEEEE;}
fieldset{padding:0 15px 10px 15px;}
h1{font-size:2.4em;margin:0;color:#FFF;}
h2{font-size:1.7em;margin:0;color:#CC0000;}
h3{font-size:1.2em;margin:10px 0 0 0;color:#000000;}
#header{width:96%;margin:0 0 0 0;padding:6px 2% 6px 2%;font-family:"trebuchet MS", Verdana, sans-serif;color:#FFF;
background-color:#555555;}
#content{margin:0 0 0 2%;position:relative;}
.content-container{background:#FFF;width:96%;margin-top:8px;padding:10px;position:relative;}
-->
</style>
</head>
<body>
<div id="header"><h1>Server Error</h1></div>
<div id="content">
 <div class="content-container"><fieldset>
  <h2>404 - File Not Found.</h2>
  <h3>File not found for celestrak.org/NORAD/elements/engineering.txt.</h3>
  <h3>Please contact <a href="mailto:ts.kelso@celestrak.org">ts.kelso@celestrak.org</a> if you have other questions.</h3>
 </fieldset></div>
</div>
</body>
</html>
GSAT0101 (PRN E11)      
1 37846U 11060A   24052.99280496 -.00000104  00000+0  00000+0 0  9990
2 37846  57.1267   4.6766 0003871 351.1363   8.8373  1.70475980 76696
GSAT0103 (PRN E19)      
1 38857U 12055A   24053.03212160 -.00000017  00000+0  00000+0 0  9990
2 38857  55.3527 124.7980 0005008 262.4631  97.5353  1.70473597 70583
GSAT0203 (PRN E26)      
1 40544U 15017A   24053.35859811 -.00000104  00000+0  00000+0 0  9999
2 40544  56.9220   4.6163 0004722 285.9909  73.9380  1.70475795 54789
GSAT0204 (PRN E22)      
1 40545U 15017B   24053.02606136 -.00000104  00000+0  00000+0 0  9994
2 40545  56.9281   4.6404 0004094 275.7889  84.1452  1.70475606 17820
GSAT0209 (PRN E09)      
1 41174U 15079A   24053.18551712 -.00000016  00000+0  00000+0 0  9999
2 41174  55.3708 124.5021 0003462 310.0866  49.9401  1.70474858 50366
GSAT0211 (PRN E02)      
1 41549U 16030A   24052.94101949  .00000048  00000+0  00000+0 0  9993
2 41549  55.4216 244.9739 0004075  17.7689 342.2593  1.70473590 48220
GSAT0221 (PRN E15)      
1 43564U 18060A   24053.20911863 -.00000104  00000+0  00000+0 0  9995
2 43564  57.3022   4.5916 0005491 297.6808  62.2440  1.70475626 34741
GSAT0220 (PRN E13)      
1 43567U 18060D   24053.28346941 -.00000103  00000+0  00000+0 0  9994
2 43567  57.3049   4.5931 0005225 299.4772  60.4513  1.70475742 34745
GSAT0223 (PRN E34)      
1 49809U 21116A   24053.41342472 -.00000103  00000+0  00000+0 0  9995
2 49809  57.2958   4.4846 0002272 269.9532 260.1045  1.70475826 13768
GSAT0224 (PRN E10)      
1 49810U 21116B   24053.23356365 -.00000104  00000+0  00000+0 0  9994
2 49810  57.2966   4.4877 0001872 287.8425 244.3260  1.70475826 13783
